H1 CPF 01  gfz 2021 04 10 12  6002 tandemx   
H2 1003001  6202 36605    2021 04 10 12 59 42 2021 04 15 00 00 42   120 1 1  0 0 0
H9
10 0 59318  82062.000000  0    2152488.060  -4494825.995  -4763929.735
10 0 59318  82182.000000  0    2208942.930  -5102600.291  -4075436.116
10 0 59318  82302.000000  0    2217097.433  -5622154.516  -3315525.303
10 0 59318  82422.000000  0    2178399.653  -6043509.281  -2497451.119
10 0 59318  82542.000000  0    2095276.426  -6358418.977  -1635520.855
10 0 59318  82662.000000  0    1971062.044  -6560544.110   -744845.476
10 0 59318  82782.000000  0    1809909.757  -6645589.321    158929.306
10 0 59318  82902.000000  0    1616683.303  -6611398.993   1059904.656
10 0 59318  83022.000000  0    1396834.655  -6458014.059   1942215.779
10 0 59318  83142.000000  0    1156268.876  -6187681.723   2790322.464
10 0 59318  83262.000000  0     901200.331  -5804819.861   3589290.341
10 0 59318  83382.000000  0     638003.909  -5315939.132   4325059.737
10 0 59318  83502.000000  0     373065.637  -4729524.341   4984696.141
10 0 59318  83622.000000  0     112635.282  -4055877.703   5556618.513
10 0 59318  83742.000000  0    -137313.870  -3306927.642   6030800.685
10 0 59318  83862.000000  0    -371215.795  -2496007.761   6398942.111
10 0 59318  83982.000000  0    -584030.933  -1637613.630   6654605.520
10 0 59318  84102.000000  0    -771350.911   -747141.400   6793323.805
10 0 59318  84222.000000  0    -929487.485    159389.908   6812674.575
10 0 59318  84342.000000  0   -1055544.285   1065627.181   6712319.940
10 0 59318  84462.000000  0   -1147469.354   1955177.810   6494011.710
10 0 59318  84582.000000  0   -1204088.312   2811905.628   6161562.721
10 0 59318  84702.000000  0   -1225118.222   3620224.170   5720784.423
10 0 59318  84822.000000  0   -1211161.245   4365382.688   5179390.565
10 0 59318  84942.000000  0   -1163678.069   5033740.121   4546868.798
10 0 59318  85062.000000  0   -1084942.502   5613022.857   3834319.155
10 0 59318  85182.000000  0    -977976.625   6092557.831   3054262.286
10 0 59318  85302.000000  0    -846470.761   6463480.341   2220422.108
10 0 59318  85422.000000  0    -694685.641   6718908.728   1347479.959
10 0 59318  85542.000000  0    -527340.752   6854078.789    450810.566
10 0 59318  85662.000000  0    -349492.200   6866437.617   -453795.601
10 0 59318  85782.000000  0    -166402.927   6755694.067  -1350419.818
10 0 59318  85902.000000  0      16591.130   6523820.963  -2223305.600
10 0 59318  86022.000000  0     194214.429   6175010.960  -3057141.880
10 0 59318  86142.000000  0     361382.411   5715590.884  -3837335.017
10 0 59318  86262.000000  0     513326.725   5153895.284  -4550265.133
10 0 59318  86382.000000  0     645711.686   4500102.632  -5183521.079
99
